stk.v.9.0

# WrittenBy    STK_v9.2.1

BEGIN Ephemeris

NumberOfEphemerisPoints 91

ScenarioEpoch            19 May 2020 04:00:00.000

# Epoch in JDate format: 2458988.66666666666667
# Epoch in YYDDD format:   20140.16666666666667


InterpolationMethod     Lagrange

InterpolationSamplesM1      5

CentralBody             Earth

CoordinateSystem        ICRF 

# Time of first point: 19 May 2020 04:00:00.000000000 UTCG = 2458988.66666666666667 JDate = 20140.16666666666667 YYDDD

EphemerisTimePosVel

3.60000000000000e+003 4.48332470570697e+006 -4.93740878758615e+006 1.87639983431935e+006 2.43283730401613e+003 4.37483094673780e+003 5.69874766293873e+003
3.66000000000000e+003 4.61952046760163e+006 -4.66445879187186e+006 2.21403186948788e+006 2.10538881298014e+003 4.72023032354364e+003 5.55160622928842e+003
3.72000000000000e+003 4.73578970319326e+006 -4.37138842620628e+006 2.54211357046210e+006 1.76885862486018e+003 5.04526875718274e+003 5.38051767205074e+003
3.78000000000000e+003 4.83163087947696e+006 -4.05946186387127e+006 2.85922974086179e+006 1.42469837899682e+003 5.34854417855661e+003 5.18621999004178e+003
3.84000000000000e+003 4.90663058087562e+006 -3.73002461527045e+006 3.16401248465643e+006 1.07439262735595e+003 5.62874839437906e+003 4.96955129576657e+003
3.90000000000000e+003 4.96046529252809e+006 -3.38449772400468e+006 3.45514710665124e+006 7.19452430841635e+002 5.88467273013163e+003 4.73144620018003e+003
3.96000000000000e+003 4.99290279578628e+006 -3.02437163713129e+006 3.73137778348888e+006 3.61408841261426e+002 6.11521324373986e+003 4.47293178119715e+003
4.02000000000000e+003 5.00380316990164e+006 -2.65119977604818e+006 3.99151298070461e+006 1.80629705983347e+000 6.31937548748119e+003 4.19512315334242e+003
4.08000000000000e+003 4.99311939558004e+006 -2.26659183573510e+006 4.23443059246818e+006 -3.57804038692012e+002 6.49627879758358e+003 3.89921865764906e+003
4.14000000000000e+003 4.96089755780185e+006 -1.87220684125593e+006 4.45908278184193e+006 -7.15870969313759e+002 6.64516009301156e+003 3.58649469255669e+003
4.20000000000000e+003 4.90727664703210e+006 -1.46974599147347e+006 4.66450050067637e+006 -1.07084995567815e+003 6.76537716705336e+003 3.25830020810454e+003
4.26000000000000e+003 4.83248795967836e+006 -1.06094532084525e+006 4.84979766964657e+006 -1.42120977865577e+003 6.85641145751086e+003 2.91605088716982e+003
4.32000000000000e+003 4.73685410038242e+006 -6.47568210954510e+005 5.01417500039842e+006 -1.76543914410319e+003 6.91787028354284e+003 2.56122303885078e+003
4.38000000000000e+003 4.62078759044950e+006 -2.31397784077939e+005 5.15692344331781e+006 -2.10205320190383e+003 6.94948853951288e+003 2.19534723033554e+003
4.44000000000000e+003 4.48478908841748e+006 1.85770788399077e+005 5.27742724605069e+006 -2.42959995094117e+003 6.95112983853545e+003 1.82000168472607e+003
4.50000000000000e+003 4.32944523044198e+006 6.02138029541529e+005 5.37516660958077e+006 -2.74666650237622e+003 6.92278710078735e+003 1.43680547329606e+003
4.56000000000000e+003 4.15542609981276e+006 1.01590791899610e+006 5.44971993040789e+006 -3.05188517421227e+003 6.86458258404690e+003 1.04741153154821e+003
4.62000000000000e+003 3.96348233651679e+006 1.42529564021236e+006 5.50076561915522e+006 -3.34393939085772e+003 6.77676735632905e+003 6.53499529196471e+002
4.68000000000000e+003 3.75444189931622e+006 1.82853527933580e+006 5.52808348776068e+006 -3.62156936223897e+003 6.65972021289125e+003 2.56768624829059e+002
4.74000000000000e+003 3.52920649430792e+006 2.22388744256314e+006 5.53155569926886e+006 -3.88357751796618e+003 6.51394604228175e+003 -1.41069863494807e+002
4.80000000000000e+003 3.28874768537038e+006 2.60964675910216e+006 5.51116727612650e+006 -4.12883367311143e+003 6.34007364847822e+003 -5.38299840098634e+002
4.86000000000000e+003 3.03410270327565e+006 2.98414923737160e+006 5.46700616478881e+006 -4.35627990331639e+003 6.13885303851119e+003 -9.33207834150842e+002
4.92000000000000e+003 2.76636997154393e+006 3.34577944270974e+006 5.39926285635826e+006 -4.56493510820051e+003 5.91115218727232e+003 -1.32409039080455e+003
4.98000000000000e+003 2.48670436834027e+006 3.69297746563048e+006 5.30822956489185e+006 -4.75389924338527e+003 5.65795329346235e+003 -1.70926141913296e+003
5.04000000000000e+003 2.19631224485141e+006 4.02424565056879e+006 5.19429896692162e+006 -4.92235720287934e+003 5.38034854282931e+003 -2.08705946516462e+003
5.10000000000000e+003 1.89644622163125e+006 4.33815505609086e+006 5.05796250762527e+006 -5.06958233507803e+003 5.07953539697211e+003 -2.45585487864594e+003
5.16000000000000e+003 1.58839978536116e+006 4.63335161870247e+006 4.89980828095354e+006 -5.19493957721024e+003 4.75681142803168e+003 -2.81405684261687e+003
5.22000000000000e+003 1.27350170933220e+006 4.90856199366780e+006 4.72051849285827e+006 -5.29788819471269e+003 4.41356872155042e+003 -3.16012023547723e+003
5.28000000000000e+003 9.53110321716899e+005 5.16259904764390e+006 4.52086651856389e+006 -5.37798411371475e+003 4.05128787164343e+003 -3.49255229594399e+003
5.34000000000000e+003 6.28607646354621e+005 5.39436697943807e+006 4.30171356657573e+006 -5.43488183657267e+003 3.67153159438383e+003 -3.80991906214958e+003
5.40000000000000e+003 3.01393441324443e+005 5.60286604679969e+006 4.06400496381523e+006 -5.46833593219052e+003 3.27593798695089e+003 -4.11085155710628e+003


END Ephemeris
